{
    "links": {
        "self": "http://www.neowsapp.com/rest/v1/neo/3297367?api_key=iIulBulltgU6a56xZRHN4H3l9WmuAYTsLGpBGhQ2"
    },
    "id": "3297367",
    "neo_reference_id": "3297367",
    "name": "(2005 UL6)",
    "designation": "2005 UL6",
    "nasa_jpl_url": "http://ssd.jpl.nasa.gov/sbdb.cgi?sstr=3297367",
    "absolute_magnitude_h": 24.5,
    "estimated_diameter": {
        "kilometers": {
            "estimated_diameter_min": 0.0334622374,
            "estimated_diameter_max": 0.0748238376
        },
        "meters": {
            "estimated_diameter_min": 33.4622374455,
            "estimated_diameter_max": 74.8238376074
        },
        "miles": {
            "estimated_diameter_min": 0.0207924639,
            "estimated_diameter_max": 0.0464933628
        },
        "feet": {
            "estimated_diameter_min": 109.7842471007,
            "estimated_diameter_max": 245.4850393757
        }
    },
    "is_potentially_hazardous_asteroid": false,
    "close_approach_data": [
        {
            "close_approach_date": "2005-10-17",
            "close_approach_date_full": "2005-Oct-17 00:29",
            "epoch_date_close_approach": 1129508940000,
            "relative_velocity": {
                "kilometers_per_second": "10.275025817",
                "kilometers_per_hour": "36990.0929411694",
                "miles_per_hour": "22984.2052500283"
            },
            "miss_distance": {
                "astronomical": "0.031579574",
                "lunar": "12.284454286",
                "kilometers": "4724237.00590738",
                "miles": "2935504.754306644"
            },
            "orbiting_body": "Earth"
        },
        {
            "close_approach_date": "2065-09-02",
            "close_approach_date_full": "2065-Sep-02 06:59",
            "epoch_date_close_approach": 3019100340000,
            "relative_velocity": {
                "kilometers_per_second": "10.5593909564",
                "kilometers_per_hour": "38013.8074429453",
                "miles_per_hour": "23620.3016303123"
            },
            "miss_distance": {
                "astronomical": "0.0941416122",
                "lunar": "36.6210871458",
                "kilometers": "14083384.663486014",
                "miles": "8751009.4401904332"
            },
            "orbiting_body": "Earth"
        }
    ],
    "orbital_data": {
        "orbit_id": "16",
        "orbit_determination_date": "2017-04-06 09:10:04",
        "first_observation_date": "2005-10-29",
        "last_observation_date": "2005-11-22",
        "data_arc_in_days": 24,
        "observations_used": 73,
        "orbit_uncertainty": "8",
        "minimum_orbit_intersection": ".00432215",
        "jupiter_tisserand_invariant": "3.156",
        "epoch_osculation": "2453680.5",
        "eccentricity": ".6138244498128846",
        "semi_major_axis": "2.532521543931016",
        "inclination": ".28244767102436",
        "ascending_node_longitude": "272.0661328319967",
        "orbital_period": "1472.068941087281",
        "perihelion_distance": ".977997900588283",
        "perihelion_argument": "84.19061879734872",
        "aphelion_distance": "4.087045187273749",
        "perihelion_time": "2453639.830239492691",
        "mean_anomaly": "9.945943001702902",
        "mean_motion": ".2445537637212163",
        "equinox": "J2000",
        "orbit_class": {
            "orbit_class_type": "APO",
            "orbit_class_description": "Near-Earth asteroid orbits which cross the Earth’s orbit similar to that of 1862 Apollo",
            "orbit_class_range": "a (semi-major axis) > 1.0 AU; q (perihelion) < 1.017 AU"
        }
    },
    "is_sentry_object": false
}